KUIPER-00027            
1 63740U 25088S   25321.95736611  .00003546  00000+0  49584-3 0  9994
2 63740  51.9019 229.5642 0005207 142.2881 217.8448 14.79767547 31079
KUIPER-00028            
1 63741U 25088T   25322.04301476  .00003567  00000+0  50133-3 0  9998
2 63741  51.9012 227.1729 0004454 160.9396 199.1734 14.79530653 31520
KUIPER-00029            
1 63742U 25088U   25322.01009859  .00004296  00000+0  58869-3 0  9990
2 63742  51.9032 225.1770 0010050 112.4405 247.7622 14.80170543 31075
KUIPER-00030            
1 63743U 25088V   25322.08482296  .00004671  00000+0  64051-3 0  9995
2 63743  51.9012 244.0537 0015409  61.4557 298.7954 14.79939445 31109
KUIPER-00031            
1 63744U 25088W   25321.96435310 -.00007767  00000+0 -99174-3 0  9992
2 63744  51.9022 230.6605 0005343 108.8451 251.3091 14.79883512 30999
KUIPER-00032            
1 63745U 25088X   25321.93200536  .00016632  00000+0  52941-3 0  9990
2 63745  51.8735 202.5366 0005805  95.8181 264.3466 15.32687144 32388
KUIPER-00033            
1 63746U 25088Y   25322.13455651  .00001121  00000+0  17633-3 0  9990
2 63746  51.9020 259.8898 0004181 152.4783 207.6401 14.79898405 31085
KUIPER-00034            
1 63747U 25088Z   25322.50002315  .00004853  00000+0  71535-3 0  9993
2 63747  51.9005 220.5780 0003126  98.5774 302.9886 14.76811273  5107
